[{"OBJECT_NAME":"HAWK-C","OBJECT_ID":"2018-099AT","EPOCH":"2026-03-09T16:08:34.251360","MEAN_MOTION":15.26407167,"ECCENTRICITY":0.00403625,"INCLINATION":97.4027,"RA_OF_ASC_NODE":122.6817,"ARG_OF_PERICENTER":277.4052,"MEAN_ANOMALY":82.2601,"EPHEMERIS_TYPE":0,"CLASSIFICATION_TYPE":"U","NORAD_CAT_ID":43799,"ELEMENT_SET_NO":999,"REV_AT_EPOCH":39872,"BSTAR":0.00035662773,"MEAN_MOTION_DOT":9.431e-5,"MEAN_MOTION_DDOT":0},{"OBJECT_NAME":"STARLINK-2469","OBJECT_ID":"2021-027AN","EPOCH":"2026-03-09T09:17:04.188192","MEAN_MOTION":15.1882832,"ECCENTRICITY":0.0001315,"INCLINATION":53.1065,"RA_OF_ASC_NODE":102.3811,"ARG_OF_PERICENTER":92.2024,"MEAN_ANOMALY":267.9122,"EPHEMERIS_TYPE":0,"CLASSIFICATION_TYPE":"U","NORAD_CAT_ID":48128,"ELEMENT_SET_NO":999,"REV_AT_EPOCH":27335,"BSTAR":0.0010578489,"MEAN_MOTION_DOT":0.00022048,"MEAN_MOTION_DDOT":0}]
